[{"OBJECT_NAME":"NOVASAR 1","OBJECT_ID":"2018-071B","EPOCH":"2026-03-09T22:37:23.630304","MEAN_MOTION":14.96279869,"ECCENTRICITY":0.00025467,"INCLINATION":97.522,"RA_OF_ASC_NODE":305.2476,"ARG_OF_PERICENTER":88.2237,"MEAN_ANOMALY":271.9277,"EPHEMERIS_TYPE":0,"CLASSIFICATION_TYPE":"U","NORAD_CAT_ID":43619,"ELEMENT_SET_NO":999,"REV_AT_EPOCH":40809,"BSTAR":0.00014385278,"MEAN_MOTION_DOT":1.57e-5,"MEAN_MOTION_DDOT":0},{"OBJECT_NAME":"SKYKRAFT-4D","OBJECT_ID":"2025-154K","EPOCH":"2026-03-09T18:12:41.751648","MEAN_MOTION":14.94999025,"ECCENTRICITY":0.00041317,"INCLINATION":97.6775,"RA_OF_ASC_NODE":134.9839,"ARG_OF_PERICENTER":213.6612,"MEAN_ANOMALY":146.4347,"EPHEMERIS_TYPE":0,"CLASSIFICATION_TYPE":"U","NORAD_CAT_ID":64898,"ELEMENT_SET_NO":999,"REV_AT_EPOCH":3243,"BSTAR":0.00061950439,"MEAN_MOTION_DOT":6.721e-5,"MEAN_MOTION_DDOT":0}]
